[{"OBJECT_NAME":"STARLINK-35158","OBJECT_ID":"2025-257B","EPOCH":"2026-03-09T17:23:05.467776","MEAN_MOTION":15.30195403,"ECCENTRICITY":0.00010004,"INCLINATION":53.1596,"RA_OF_ASC_NODE":217.2318,"ARG_OF_PERICENTER":90.2549,"MEAN_ANOMALY":269.8567,"EPHEMERIS_TYPE":0,"CLASSIFICATION_TYPE":"U","NORAD_CAT_ID":66381,"ELEMENT_SET_NO":999,"REV_AT_EPOCH":1973,"BSTAR":0.00077466163,"MEAN_MOTION_DOT":0.00022651,"MEAN_MOTION_DDOT":0},{"OBJECT_NAME":"SPACEMOBILE-001 DEB","OBJECT_ID":"2024-163F","EPOCH":"2026-03-09T07:17:56.452704","MEAN_MOTION":15.32884299,"ECCENTRICITY":0.00071876,"INCLINATION":52.9956,"RA_OF_ASC_NODE":27.518,"ARG_OF_PERICENTER":196.7865,"MEAN_ANOMALY":163.2898,"EPHEMERIS_TYPE":0,"CLASSIFICATION_TYPE":"U","NORAD_CAT_ID":62369,"ELEMENT_SET_NO":999,"REV_AT_EPOCH":7117,"BSTAR":0.00044817004,"MEAN_MOTION_DOT":0.00014099,"MEAN_MOTION_DDOT":0}]
